{"type": "FeatureCollection", "features": [ {"type": "Feature", "properties": {"norad_id": 66875, "name": "STARLINK-36053", "group": "last-30-days", "lat": 15.440316409292636, "lon": 129.14223717674292, "alt_km": 303.7459846581705, "timestamp": "2025-12-14T09:36:21.780900+00:00", "meta": {"OBJECT_NAME": "STARLINK-36053", "OBJECT_ID": "2025-281AD", "EPOCH": "2025-12-13T15:24:35.039808", "MEAN_MOTION": 15.89588447, "ECCENTRICITY": 0.00017716, "INCLINATION": 42.9997, "RA_OF_ASC_NODE": 116.5979, "ARG_OF_PERICENTER": 264.1985, "MEAN_ANOMALY": 95.8687, "EPHEMERIS_TYPE": 0, "CLASSIFICATION_TYPE": "U", "NORAD_CAT_ID": 66875, "ELEMENT_SET_NO": 999, "REV_AT_EPOCH": 288, "BSTAR": -0.0017581619, "MEAN_MOTION_DOT": -0.00506784, "MEAN_MOTION_DDOT": 0}, "tle": {"line1": "1 66875U 25281AD  25347.64207222 -.00506784  00000+0 -17582-2 0  9992", "line2": "2 66875  42.9997 116.5979 0001771 264.1985  95.8687 15.89588447  2883"}}, "geometry": {"type": "Point", "coordinates": [129.14223717674292, 15.440316409292636]}}, {"type": "Feature", "properties": {"norad_id": 66876, "name": "STARLINK-35702", "group": "last-30-days", "lat": 25.96642507828774, "lon": 143.36599340340132, "alt_km": 283.7706333766473, "timestamp": "2025-12-14T09:36:21.780910+00:00", "meta": {"OBJECT_NAME": "STARLINK-35702", "OBJECT_ID": "2025-281AE", "EPOCH": "2025-12-13T01:51:28.717344", "MEAN_MOTION": 15.92649649, "ECCENTRICITY": 0.00026407, "INCLINATION": 43.0009, "RA_OF_ASC_NODE": 120.1106, "ARG_OF_PERICENTER": 295.4716, "MEAN_ANOMALY": 64.5886, "EPHEMERIS_TYPE": 0, "CLASSIFICATION_TYPE": "U", "NORAD_CAT_ID": 66876, "ELEMENT_SET_NO": 999, "REV_AT_EPOCH": 284, "BSTAR": 0.002543947, "MEAN_MOTION_DOT": 0.00900389, "MEAN_MOTION_DDOT": 0.00035047709}, "tle": {"line1": "1 66876U 25281AE  25347.07741571  .00900389  35048-3  25439-2 0  9991", "line2": "2 66876  43.0009 120.1106 0002640 295.4716  64.5886 15.92649649  2844"}}, "geometry": {"type": "Point", "coordinates": [143.36599340340132, 25.96642507828774]}}, {"type": "Feature", "properties": {"norad_id": 66877, "name": "ZQ-3 R/B", "group": "last-30-days", "lat": 42.10136579647508, "lon": 87.33945032388544, "alt_km": 1207.518708581788, "timestamp": "2025-12-14T09:36:21.780921+00:00", "meta": {"OBJECT_NAME": "ZQ-3 R/B", "OBJECT_ID": "2025-282A", "EPOCH": "2025-12-13T11:59:41.296128", "MEAN_MOTION": 14.60918996, "ECCENTRICITY": 0.07731202, "INCLINATION": 56.9514, "RA_OF_ASC_NODE": 54.7646, "ARG_OF_PERICENTER": 221.2677, "MEAN_ANOMALY": 132.7387, "EPHEMERIS_TYPE": 0, "CLASSIFICATION_TYPE": "U", "NORAD_CAT_ID": 66877, "ELEMENT_SET_NO": 999, "REV_AT_EPOCH": 150, "BSTAR": 0.0002349488, "MEAN_MOTION_DOT": 0.01185665, "MEAN_MOTION_DDOT": 7.503434e-06}, "tle": {"line1": "1 66877U 25282A   25347.49978352  .01185665  75034-5  23495-3 0  9993", "line2": "2 66877  56.9514  54.7646 0773120 221.2677 132.7387 14.60918996  1505"}}, "geometry": {"type": "Point", "coordinates": [87.33945032388544, 42.10136579647508]}}, {"type": "Feature", "properties": {"norad_id": 66878, "name": "STARLINK-35866", "group": "last-30-days", "lat": -3.519783879738075, "lon": 62.8969295971169, "alt_km": 302.5031501489848, "timestamp": "2025-12-14T09:36:21.780933+00:00", "meta": {"OBJECT_NAME": "STARLINK-35866", "OBJECT_ID": "2025-283A", "EPOCH": "2025-12-13T14:00:03.000384", "MEAN_MOTION": 15.92259392, "ECCENTRICITY": 7.559e-05, "INCLINATION": 53.1556, "RA_OF_ASC_NODE": 69.6992, "ARG_OF_PERICENTER": 59.901, "MEAN_ANOMALY": 293.4413, "EPHEMERIS_TYPE": 0, "CLASSIFICATION_TYPE": "U", "NORAD_CAT_ID": 66878, "ELEMENT_SET_NO": 999, "REV_AT_EPOCH": 256, "BSTAR": -0.0035932699, "MEAN_MOTION_DOT": -0.01235887, "MEAN_MOTION_DDOT": 0.00045060365}, "tle": {"line1": "1 66878U 25283A   25347.58336806 -.01235887  45060-3 -35933-2 0  9994", "line2": "2 66878  53.1556  69.6992 0000755  59.9010 293.4413 15.92259392  2560"}}, "geometry": {"type": "Point", "coordinates": [62.8969295971169, -3.519783879738075]}}, {"type": "Feature", "properties": {"norad_id": 66879, "name": "STARLINK-35749", "group": "last-30-days", "lat": 0.3826414288241348, "lon": 65.81689208853192, "alt_km": 301.78989154376814, "timestamp": "2025-12-14T09:36:21.780943+00:00", "meta": {"OBJECT_NAME": "STARLINK-35749", "OBJECT_ID": "2025-283B", "EPOCH": "2025-12-13T14:00:03.000384", "MEAN_MOTION": 15.92366871, "ECCENTRICITY": 0.00010883, "INCLINATION": 53.1554, "RA_OF_ASC_NODE": 69.6892, "ARG_OF_PERICENTER": 60.7309, "MEAN_ANOMALY": 297.2204, "EPHEMERIS_TYPE": 0, "CLASSIFICATION_TYPE": "U", "NORAD_CAT_ID": 66879, "ELEMENT_SET_NO": 999, "REV_AT_EPOCH": 256, "BSTAR": -0.0036278148, "MEAN_MOTION_DOT": -0.01254598, "MEAN_MOTION_DDOT": 0.00046358135}, "tle": {"line1": "1 66879U 25283B   25347.58336806 -.01254598  46358-3 -36278-2 0  9999", "line2": "2 66879  53.1554  69.6892 0001088  60.7309 297.2204 15.92366871  2560"}}, "geometry": {"type": "Point", "coordinates": [65.81689208853192, 0.3826414288241348]}}, {"type": "Feature", "properties": {"norad_id": 66880, "name": "STARLINK-35844", "group": "last-30-days", "lat": -1.6686208614848022, "lon": 64.28419727476319, "alt_km": 302.09624665919546, "timestamp": "2025-12-14T09:36:21.780953+00:00", "meta": {"OBJECT_NAME": "STARLINK-35844", "OBJECT_ID": "2025-283C", "EPOCH": "2025-12-13T14:00:03.000384", "MEAN_MOTION": 15.92309591, "ECCENTRICITY": 8.008e-05, "INCLINATION": 53.1558, "RA_OF_ASC_NODE": 69.6948, "ARG_OF_PERICENTER": 57.9381, "MEAN_ANOMALY": 297.5819, "EPHEMERIS_TYPE": 0, "CLASSIFICATION_TYPE": "U", "NORAD_CAT_ID": 66880, "ELEMENT_SET_NO": 999, "REV_AT_EPOCH": 256, "BSTAR": -0.0035971303, "MEAN_MOTION_DOT": -0.01240406, "MEAN_MOTION_DDOT": 0.00045382724}, "tle": {"line1": "1 66880U 25283C   25347.58336806 -.01240406  45383-3 -35971-2 0  9990", "line2": "2 66880  53.1558  69.6948 0000800  57.9381 297.5819 15.92309591  2568"}}, "geometry": {"type": "Point", "coordinates": [64.28419727476319, -1.6686208614848022]}}, {"type": "Feature", "properties": {"norad_id": 66881, "name": "STARLINK-35860", "group": "last-30-days", "lat": 1.964493618683435, "lon": 66.99953322842873, "alt_km": 301.3811418824298, "timestamp": "2025-12-14T09:36:21.780966+00:00", "meta": {"OBJECT_NAME": "STARLINK-35860", "OBJECT_ID": "2025-283D", "EPOCH": "2025-12-13T14:00:03.000384", "MEAN_MOTION": 15.92410685, "ECCENTRICITY": 0.00011901, "INCLINATION": 53.1553, "RA_OF_ASC_NODE": 69.6852, "ARG_OF_PERICENTER": 59.1633, "MEAN_ANOMALY": 300.6377, "EPHEMERIS_TYPE": 0, "CLASSIFICATION_TYPE": "U", "NORAD_CAT_ID": 66881, "ELEMENT_SET_NO": 999, "REV_AT_EPOCH": 256, "BSTAR": -0.0036206297, "MEAN_MOTION_DOT": -0.01254986, "MEAN_MOTION_DDOT": 0.00046404045}, "tle": {"line1": "1 66881U 25283D   25347.58336806 -.01254986  46404-3 -36206-2 0  9996", "line2": "2 66881  53.1553  69.6852 0001190  59.1633 300.6377 15.92410685  2567"}}, "geometry": {"type": "Point", "coordinates": [66.99953322842873, 1.964493618683435]}}, {"type": "Feature", "properties": {"norad_id": 66882, "name": "STARLINK-35912", "group": "last-30-days", "lat": 3.78234084485684, "lon": 68.36305464320564, "alt_km": 300.94415611388104, "timestamp": "2025-12-14T09:36:21.780978+00:00", "meta": {"OBJECT_NAME": "STARLINK-35912", "OBJECT_ID": "2025-283E", "EPOCH": "2025-12-13T14:00:03.000384", "MEAN_MOTION": 15.92464022, "ECCENTRICITY": 9.195e-05, "INCLINATION": 53.1556, "RA_OF_ASC_NODE": 69.6813, "ARG_OF_PERICENTER": 58.9038, "MEAN_ANOMALY": 303.0321, "EPHEMERIS_TYPE": 0, "CLASSIFICATION_TYPE": "U", "NORAD_CAT_ID": 66882, "ELEMENT_SET_NO": 999, "REV_AT_EPOCH": 256, "BSTAR": -0.0036399302, "MEAN_MOTION_DOT": -0.01265039, "MEAN_MOTION_DDOT": 0.00047107043}, "tle": {"line1": "1 66882U 25283E   25347.58336806 -.01265039  47107-3 -36399-2 0  9992", "line2": "2 66882  53.1556  69.6813 0000919  58.9038 303.0321 15.92464022  2562"}}, "geometry": {"type": "Point", "coordinates": [68.36305464320564, 3.78234084485684]}}, {"type": "Feature", "properties": {"norad_id": 66883, "name": "STARLINK-35947", "group": "last-30-days", "lat": 5.736962670118641, "lon": 69.83697436902895, "alt_km": 300.6058054604546, "timestamp": "2025-12-14T09:36:21.780988+00:00", "meta": {"OBJECT_NAME": "STARLINK-35947", "OBJECT_ID": "2025-283F", "EPOCH": "2025-12-13T14:00:03.000384", "MEAN_MOTION": 15.9251449, "ECCENTRICITY": 7.057e-05, "INCLINATION": 53.1556, "RA_OF_ASC_NODE": 69.6766, "ARG_OF_PERICENTER": 60.6567, "MEAN_ANOMALY": 303.5749, "EPHEMERIS_TYPE": 0, "CLASSIFICATION_TYPE": "U", "NORAD_CAT_ID": 66883, "ELEMENT_SET_NO": 999, "REV_AT_EPOCH": 261, "BSTAR": -0.0036296596, "MEAN_MOTION_DOT": -0.01264778, "MEAN_MOTION_DDOT": 0.00047112555}, "tle": {"line1": "1 66883U 25283F   25347.58336806 -.01264778  47113-3 -36297-2 0  9996", "line2": "2 66883  53.1556  69.6766 0000705  60.6567 303.5749 15.92514490  2610"}}, "geometry": {"type": "Point", "coordinates": [69.83697436902895, 5.736962670118641]}}, {"type": "Feature", "properties": {"norad_id": 66884, "name": "STARLINK-36057", "group": "last-30-days", "lat": 9.550135934578536, "lon": 72.75370000890189, "alt_km": 299.72124594288834, "timestamp": "2025-12-14T09:36:21.780998+00:00", "meta": {"OBJECT_NAME": "STARLINK-36057", "OBJECT_ID": "2025-283G", "EPOCH": "2025-12-13T14:00:03.000384", "MEAN_MOTION": 15.92620129, "ECCENTRICITY": 8.96e-05, "INCLINATION": 53.1555, "RA_OF_ASC_NODE": 69.6667, "ARG_OF_PERICENTER": 64.4833, "MEAN_ANOMALY": 304.2534, "EPHEMERIS_TYPE": 0, "CLASSIFICATION_TYPE": "U", "NORAD_CAT_ID": 66884, "ELEMENT_SET_NO": 999, "REV_AT_EPOCH": 256, "BSTAR": -0.003642055, "MEAN_MOTION_DOT": -0.01276009, "MEAN_MOTION_DDOT": 0.00047926308}, "tle": {"line1": "1 66884U 25283G   25347.58336806 -.01276009  47926-3 -36421-2 0  9998", "line2": "2 66884  53.1555  69.6667 0000896  64.4833 304.2534 15.92620129  2560"}}, "geometry": {"type": "Point", "coordinates": [72.75370000890189, 9.550135934578536]}}]}